{
"type": "FeatureCollection",
"name": "interceptors_force_mains",
"crs": { "type": "name", "properties": { "name": "urn:ogc:def:crs:OGC:1.3:CRS84" } },
"features": [
{ "type": "Feature", "properties": { "sewershed": "TI", "type": "Interceptor", "name": "Kissena Corridor Sewers" }, "geometry": { "type": "LineString", "coordinates": [ [ -73.785641123117131, 40.744892626992957 ], [ -73.788226648292721, 40.74866836315406 ] ] } },
{ "type": "Feature", "properties": { "sewershed": "HP", "type": "Interceptor", "name": null }, "geometry": { "type": "LineString", "coordinates": [ [ -73.870615457085563, 40.814726080013273 ], [ -73.868981090235394, 40.81231960722458 ] ] } },
{ "type": "Feature", "properties": { "sewershed": "BB", "type": "Interceptor", "name": null }, "geometry": { "type": "LineString", "coordinates": [ [ -73.940249732942448, 40.738452474035199 ], [ -73.938596085724413, 40.738165692446813 ], [ -73.93821791858096, 40.740624330964266 ], [ -73.937613853306004, 40.743425939139186 ], [ -73.93889197062434, 40.743426624369526 ], [ -73.94054585175374, 40.743599036932402 ], [ -73.940319532705502, 40.74445665445959 ] ] } },
{ "type": "Feature", "properties": { "sewershed": "TI", "type": "Interceptor", "name": "Kissena Corridor Sewers" }, "geometry": { "type": "LineString", "coordinates": [ [ -73.751193252663853, 40.761970655405541 ], [ -73.7767194903155, 40.756199886402364 ], [ -73.776346382429395, 40.755341426879092 ], [ -73.780048741075248, 40.753776040068544 ], [ -73.781243238176302, 40.752587014804966 ], [ -73.786388642854206, 40.750357027555602 ], [ -73.786392004370512, 40.749308689520412 ], [ -73.793976529796282, 40.746661273374315 ] ] } },
{ "type": "Feature", "properties": { "sewershed": "TI", "type": "Interceptor", "name": "Kissena Corridor Sewers" }, "geometry": { "type": "LineString", "coordinates": [ [ -73.743431175080389, 40.772994042316299 ], [ -73.738937988592781, 40.766585501535914 ], [ -73.740091433457678, 40.766116644529404 ], [ -73.740096690117014, 40.764769613835249 ], [ -73.744529436786394, 40.763836598634043 ], [ -73.746298240093623, 40.763732633386248 ], [ -73.74712724290697, 40.763276997011324 ], [ -73.75104241715384, 40.762084694298046 ] ] } },
{ "type": "Feature", "properties": { "sewershed": "TI", "type": "Interceptor", "name": "Kissena Corridor Sewers" }, "geometry": { "type": "LineString", "coordinates": [ [ -73.741546420363306, 40.756421205798453 ], [ -73.742335747833621, 40.758443540092856 ], [ -73.741800125495715, 40.759519975831381 ], [ -73.743659176541414, 40.759793536236323 ], [ -73.745066338699104, 40.762423393017009 ], [ -73.74559395668355, 40.763434841453773 ], [ -73.74554220849511, 40.763777074144947 ] ] } },
{ "type": "Feature", "properties": { "sewershed": "TI", "type": "Interceptor", "name": "Kissena Corridor Sewers" }, "geometry": { "type": "LineString", "coordinates": [ [ -73.793473106610193, 40.730051540670118 ], [ -73.793976529796339, 40.746661273374272 ], [ -73.794477040334087, 40.746900427679044 ], [ -73.795291567312773, 40.746901878225401 ], [ -73.797234771216509, 40.746619403392366 ], [ -73.800430781148393, 40.74643437738407 ], [ -73.804191091402956, 40.746107267400149 ], [ -73.811270859158284, 40.746214389866367 ], [ -73.814653185161248, 40.746601098456708 ] ] } },
{ "type": "Feature", "properties": { "sewershed": "TI", "type": "Interceptor", "name": "Kissena Corridor Sewers" }, "geometry": { "type": "LineString", "coordinates": [ [ -73.814613947461154, 40.746591504908203 ], [ -73.817656886917973, 40.747373089983427 ], [ -73.823743156523207, 40.748869306196724 ], [ -73.826072783363472, 40.749349367224198 ], [ -73.82762572217608, 40.749732917419578 ], [ -73.831981812024324, 40.75170261442652 ] ] } },
{ "type": "Feature", "properties": { "sewershed": "TI", "type": "Interceptor", "name": "Flushing Interceptor" }, "geometry": { "type": "LineString", "coordinates": [ [ -73.832031940419412, 40.751702687535492 ], [ -73.83427180302472, 40.75810320235211 ], [ -73.835670690279159, 40.762608309159027 ], [ -73.834635824196369, 40.762928478481825 ], [ -73.834916249496658, 40.763572180792856 ], [ -73.830730827199048, 40.764388102005007 ], [ -73.831897546335213, 40.767713526501929 ], [ -73.835566096262113, 40.766896826501871 ] ] } },
{ "type": "Feature", "properties": { "sewershed": "TI", "type": "Interceptor", "name": "Flushing Interceptor" }, "geometry": { "type": "LineString", "coordinates": [ [ -73.831756345763594, 40.767784798150139 ], [ -73.832081247771157, 40.769429260170789 ], [ -73.833343663571455, 40.772147246287304 ], [ -73.835509698422598, 40.770699361418707 ], [ -73.836400319186751, 40.771737056179511 ], [ -73.837195636644992, 40.773310691878144 ], [ -73.838178604405016, 40.775063279500735 ], [ -73.838786470850735, 40.776422206983781 ], [ -73.8387350439843, 40.77824481476177 ], [ -73.838391373454712, 40.784248451248018 ], [ -73.838245369505501, 40.786285356609177 ], [ -73.83804694544547, 40.790537990162072 ], [ -73.838798877426925, 40.790717738027418 ], [ -73.8387931659678, 40.793076486760029 ], [ -73.838786242444414, 40.795935574964261 ] ] } },
{ "type": "Feature", "properties": { "sewershed": "TI", "type": "Interceptor", "name": "College Point System Inter" }, "geometry": { "type": "LineString", "coordinates": [ [ -73.846485349804908, 40.773144748890559 ], [ -73.847801644301683, 40.773146495078898 ], [ -73.847604851179412, 40.776970289162925 ], [ -73.848024870686402, 40.778328918655312 ], [ -73.848870558114797, 40.778580202513929 ], [ -73.848678845983031, 40.780188196925209 ], [ -73.848581401660525, 40.781689098174404 ], [ -73.84853048274995, 40.783404492834642 ], [ -73.854500411594927, 40.784019743921455 ], [ -73.85703970156726, 40.783879966816727 ], [ -73.857036401908232, 40.78541672963825 ], [ -73.854024666516594, 40.786556594534993 ], [ -73.851905587173448, 40.787983441171136 ], [ -73.851855703385681, 40.789269971952535 ], [ -73.852275014936637, 40.791021708340587 ], [ -73.849827151228453, 40.792197923040987 ], [ -73.848462317148446, 40.792696478874689 ], [ -73.845734575218131, 40.792835815188631 ], [ -73.845074070966191, 40.793764136131934 ], [ -73.838818092694098, 40.794434593276783 ] ] } },
{ "type": "Feature", "properties": { "sewershed": "TI", "type": "Interceptor", "name": "Whitestone Interceptor" }, "geometry": { "type": "LineString", "coordinates": [ [ -73.772306944558366, 40.781091882527136 ], [ -73.773576641974444, 40.783781945727185 ], [ -73.775899878979672, 40.7864168649321 ], [ -73.779729696033371, 40.788539986259146 ], [ -73.783338513972538, 40.78929019409226 ], [ -73.789285333791483, 40.788271942576515 ], [ -73.792071842432946, 40.787362090182697 ], [ -73.794633990617768, 40.785994314110667 ], [ -73.796819012507697, 40.784911727211828 ], [ -73.799902413007757, 40.785260214657569 ], [ -73.799047092392698, 40.794465036925686 ], [ -73.806644591093587, 40.795107034323621 ], [ -73.806725643126143, 40.793105800131698 ], [ -73.811389508958612, 40.793456618453128 ], [ -73.8109293011522, 40.796543691898428 ], [ -73.812057626381986, 40.796659901119789 ], [ -73.813491094794998, 40.795289862038516 ], [ -73.814619562478114, 40.795348864480623 ], [ -73.815518661767996, 40.796722674386729 ], [ -73.817250987134571, 40.79609643227792 ], [ -73.818300483280879, 40.797527640524436 ], [ -73.823120375187372, 40.795934042688025 ], [ -73.824022983342402, 40.796049788179936 ], [ -73.825679819490276, 40.795480486167932 ], [ -73.824631552650288, 40.793534708878788 ], [ -73.827568868281858, 40.792395500860408 ], [ -73.827947721026348, 40.791366791111358 ], [ -73.82757953109747, 40.788278412166619 ] ] } },
{ "type": "Feature", "properties": { "sewershed": "TI", "type": "Interceptor", "name": "Whitestone Interceptor" }, "geometry": { "type": "LineString", "coordinates": [ [ -73.822495912045298, 40.7887420494149 ], [ -73.827654764991095, 40.788278524695009 ], [ -73.831642595494927, 40.788112872986773 ], [ -73.838163808858923, 40.788063682468582 ] ] } },
{ "type": "Feature", "properties": { "sewershed": "NC", "type": "Interceptor", "name": "Kent Avenue" }, "geometry": { "type": "LineString", "coordinates": [ [ -73.924136883208831, 40.713863977405751 ], [ -73.922863369667212, 40.710374994746417 ], [ -73.927598877379054, 40.709177236364233 ], [ -73.927449396990596, 40.708433768630741 ], [ -73.932033757953832, 40.707864740802279 ], [ -73.934733540555044, 40.713355829812798 ], [ -73.938558097921373, 40.722106859066983 ], [ -73.941264387894464, 40.721479264177944 ], [ -73.942015526291158, 40.721994287245558 ], [ -73.942314826728165, 40.723538364352514 ], [ -73.944492779393826, 40.725598003405473 ], [ -73.945637655590573, 40.731877179874246 ], [ -73.948946027083508, 40.730735046126767 ], [ -73.960297203049265, 40.7296530536156 ] ] } },
{ "type": "Feature", "properties": { "sewershed": "NC", "type": "Interceptor", "name": "West Street" }, "geometry": { "type": "LineString", "coordinates": [ [ -73.952999913221191, 40.738170481125138 ], [ -73.955255275121246, 40.738114197141044 ], [ -73.959993064321637, 40.735428369721312 ], [ -73.959094482465787, 40.729709815054946 ] ] } },
{ "type": "Feature", "properties": { "sewershed": "NC", "type": "Interceptor", "name": "Kent Avenue" }, "geometry": { "type": "LineString", "coordinates": [ [ -73.957590978778555, 40.729938000783108 ], [ -73.95706686475485, 40.726735590827921 ], [ -73.957745122341137, 40.723933901824793 ], [ -73.966092081231722, 40.715988296948282 ], [ -73.96804804566321, 40.711814531593184 ], [ -73.968815520943963, 40.70974473355102 ], [ -73.968441201747353, 40.70677113767367 ] ] } },
{ "type": "Feature", "properties": { "sewershed": "NC", "type": "Interceptor", "name": "Lower Manhattan" }, "geometry": { "type": "LineString", "coordinates": [ [ -73.951789495147835, 40.765636427079613 ], [ -73.956165743537724, 40.761446156945503 ], [ -73.958270952401335, 40.761676634912149 ], [ -73.959324646257357, 40.760304639960715 ], [ -73.96195885427673, 40.756588698303851 ], [ -73.963237255918074, 40.756531931182508 ], [ -73.964967024500368, 40.756132194851887 ], [ -73.97076036198996, 40.749043215116622 ], [ -73.971813889122942, 40.746984916290586 ], [ -73.979937521199901, 40.735721701733574 ], [ -73.974190832094237, 40.732707634875304 ], [ -73.975730191870539, 40.728984806646487 ], [ -73.973475429429911, 40.728355302745769 ], [ -73.973766318727115, 40.726588631131605 ], [ -73.978814951379292, 40.719836223638033 ], [ -73.978290195057838, 40.715718985855403 ], [ -73.978741819144759, 40.713488951679757 ], [ -73.979348844455529, 40.711146162241718 ], [ -73.982498459270076, 40.710695159958128 ], [ -73.984789853405175, 40.710592040032616 ], [ -73.988759243211064, 40.710115943693921 ], [ -73.993025240746206, 40.709610080291576 ], [ -73.995695669623956, 40.709195548081354 ], [ -73.996490216487317, 40.709083073545649 ], [ -73.997856463380543, 40.70879009152867 ], [ -73.998612688603487, 40.708627916275596 ], [ -74.003453036430955, 40.705970040736261 ], [ -74.006243385308338, 40.704205338069222 ], [ -74.007962789162121, 40.7030265730778 ], [ -74.008702469798138, 40.702520708753326 ], [ -74.010564458748917, 40.701638239618681 ], [ -74.012925282258294, 40.701075064013089 ], [ -74.014029134013555, 40.701109127456618 ] ] } },
{ "type": "Feature", "properties": { "sewershed": "NC", "type": "Interceptor", "name": "Lower Manhattan" }, "geometry": { "type": "LineString", "coordinates": [ [ -74.014029134013555, 40.701109127456618 ], [ -74.014663157574162, 40.701410845609679 ], [ -74.015947055870186, 40.702768762049416 ], [ -74.016600829093235, 40.704843185413807 ], [ -74.016322095973393, 40.706322280349731 ], [ -74.015703409978514, 40.707749829600949 ], [ -74.015038791939745, 40.709494245964606 ], [ -74.014343561615604, 40.711646955117736 ], [ -74.014046734881887, 40.712909363965544 ], [ -74.013466026064634, 40.714419315050399 ], [ -74.012267553473507, 40.719513336175758 ], [ -74.011331031428867, 40.723932022217483 ], [ -74.010910192789055, 40.726162823097006 ], [ -74.010889501902867, 40.727891933485218 ], [ -74.010303264330275, 40.732618455730332 ] ] } },
{ "type": "Feature", "properties": { "sewershed": "RH", "type": "Interceptor", "name": "Bond Lorraine Interceptor" }, "geometry": { "type": "LineString", "coordinates": [ [ -73.988293686843605, 40.681852904367382 ], [ -73.992449873515739, 40.676304881655902 ], [ -73.993856257715322, 40.676256295416145 ], [ -73.994239815540382, 40.67625631525798 ], [ -73.997180462575884, 40.675380366058086 ], [ -73.999226113591135, 40.672265521373099 ], [ -74.009518028611964, 40.675039317333955 ], [ -74.015080362914276, 40.678786307325737 ] ] } },
{ "type": "Feature", "properties": { "sewershed": "RH", "type": "Interceptor", "name": "Columbia Street Interceptor" }, "geometry": { "type": "LineString", "coordinates": [ [ -74.016102211944954, 40.674600554768723 ], [ -74.005171813697871, 40.683994858930475 ], [ -74.003317721207253, 40.683702907998146 ], [ -73.999545595008016, 40.691490133368582 ], [ -73.999417697886472, 40.693242246895821 ], [ -73.996156210532376, 40.700445315854139 ], [ -73.990592219554927, 40.703170503119331 ], [ -73.990592144002591, 40.703705870557769 ], [ -73.97677842795126, 40.703557903308997 ] ] } },
{ "type": "Feature", "properties": { "sewershed": "RH", "type": "Interceptor", "name": "North Sewer Interceptor" }, "geometry": { "type": "LineString", "coordinates": [ [ -73.985987411722661, 40.704386778788582 ], [ -73.986051375185397, 40.704338116795284 ], [ -73.982535044007292, 40.70015203624461 ], [ -73.983047714431819, 40.695917840112138 ], [ -73.982664372528234, 40.694652367710049 ], [ -73.978571960330441, 40.694651678511732 ], [ -73.978317672365066, 40.690076666142097 ], [ -73.973332080861084, 40.68584134052405 ], [ -73.947756209954662, 40.687974045763447 ] ] } },
{ "type": "Feature", "properties": { "sewershed": "RH", "type": "Force Main", "name": "Flushing Tunnel" }, "geometry": { "type": "LineString", "coordinates": [ [ -73.986885598185339, 40.682107222342211 ], [ -73.990008192859705, 40.683275328783921 ], [ -73.990884929058581, 40.682149315547669 ], [ -73.995048509993325, 40.683692724921023 ], [ -74.002773529892863, 40.685861555738619 ], [ -74.004143268739043, 40.686278583296321 ], [ -74.004581576752685, 40.686236859808687 ], [ -74.00540342603486, 40.686445358507498 ] ] } },
{ "type": "Feature", "properties": { "sewershed": "26W", "type": "Interceptor", "name": "26 Ward East" }, "geometry": { "type": "LineString", "coordinates": [ [ -73.864585677747272, 40.660800847045842 ], [ -73.880411741822158, 40.654809948066394 ] ] } },
{ "type": "Feature", "properties": { "sewershed": "26W", "type": "Interceptor", "name": null }, "geometry": { "type": "LineString", "coordinates": [ [ -73.885194950145973, 40.660063060664839 ], [ -73.880411741822158, 40.654809948066394 ] ] } },
{ "type": "Feature", "properties": { "sewershed": "26W", "type": "Interceptor", "name": "26 Ward West" }, "geometry": { "type": "LineString", "coordinates": [ [ -73.891207677647557, 40.650016886210864 ], [ -73.880411741822158, 40.654809948066394 ] ] } },
{ "type": "Feature", "properties": { "sewershed": "JAM", "type": "Interceptor", "name": "Jamaica East" }, "geometry": { "type": "LineString", "coordinates": [ [ -73.752909623442889, 40.681748452113112 ], [ -73.753921828685307, 40.678853349336727 ], [ -73.746321094754634, 40.676092057107489 ], [ -73.751748191105989, 40.666482128913685 ], [ -73.757277283591094, 40.657589818200961 ], [ -73.769972527277787, 40.661648754533587 ], [ -73.778274118434638, 40.65856763818131 ], [ -73.782522494978906, 40.65954565461324 ], [ -73.799421563167158, 40.662410627861703 ], [ -73.806814054441389, 40.663352181840935 ] ] } },
{ "type": "Feature", "properties": { "sewershed": "JAM", "type": "Interceptor", "name": null }, "geometry": { "type": "LineString", "coordinates": [ [ -73.81745252261554, 40.66607778120467 ], [ -73.817755276249756, 40.664279391933349 ], [ -73.80681405444146, 40.663352181840885 ] ] } },
{ "type": "Feature", "properties": { "sewershed": "JAM", "type": "Interceptor", "name": "Jamaica West" }, "geometry": { "type": "LineString", "coordinates": [ [ -73.85712924620195, 40.673653352732209 ], [ -73.85676253768213, 40.670167095251259 ], [ -73.853713440201545, 40.669529255611785 ], [ -73.852787048497973, 40.663928910350307 ], [ -73.851222596859301, 40.663926897637495 ], [ -73.850408562921444, 40.662163646923794 ], [ -73.849081934851654, 40.662843247257697 ], [ -73.848412540196293, 40.661302342423703 ], [ -73.83592, 40.66297999999982 ], [ -73.834244742937273, 40.665097851295947 ], [ -73.832433474806137, 40.665865180113947 ], [ -73.828691750732276, 40.664967732441411 ], [ -73.822122226334386, 40.664481236746362 ], [ -73.817755276249756, 40.664279391933349 ] ] } },
{ "type": "Feature", "properties": { "sewershed": "NC", "type": "Interceptor", "name": null }, "geometry": { "type": "LineString", "coordinates": [ [ -73.977886150089788, 40.738566292119543 ], [ -73.975200877013066, 40.737436249753152 ] ] } },
{ "type": "Feature", "properties": { "sewershed": "ROC", "type": "Interceptor", "name": "Rockaway" }, "geometry": { "type": "LineString", "coordinates": [ [ -73.868706514436127, 40.573089721730575 ], [ -73.8648333240982, 40.575017977997867 ], [ -73.86231082408402, 40.576362688898534 ], [ -73.858980073389731, 40.577950328707296 ], [ -73.856001381459407, 40.57954783264308 ], [ -73.853731533717479, 40.580736431511241 ], [ -73.85029206361267, 40.581707362407954 ], [ -73.84782510220532, 40.582048668832492 ], [ -73.84415540427122, 40.581496821950687 ], [ -73.839348428075809, 40.581691903885158 ], [ -73.839023753817301, 40.582493004141384 ], [ -73.837472230303831, 40.58278017377598 ], [ -73.836537816285968, 40.582830531130227 ], [ -73.835108865512609, 40.58307106094 ], [ -73.833206931230919, 40.583586269523209 ], [ -73.830932270363434, 40.583903237074104 ], [ -73.828590037785872, 40.584304266282523 ], [ -73.827309694682214, 40.585134964084979 ], [ -73.823998251655695, 40.585612215403422 ], [ -73.82168833530632, 40.586364987523318 ], [ -73.820327454607522, 40.587363543960464 ], [ -73.818702591463492, 40.587821666914394 ], [ -73.817895250931755, 40.588672393458154 ], [ -73.816603482322947, 40.589427114626687 ], [ -73.814297495098259, 40.59063883726396 ], [ -73.812272446191514, 40.591326534361606 ], [ -73.811189356461966, 40.59163904316042 ], [ -73.809870814395438, 40.591539680655274 ] ] } },
{ "type": "Feature", "properties": { "sewershed": "HP", "type": "Interceptor", "name": "Soundview" }, "geometry": { "type": "LineString", "coordinates": [ [ -73.856623189614993, 40.815627514337564 ], [ -73.855784551015006, 40.811471787113916 ], [ -73.869052507698854, 40.812397699317891 ], [ -73.870918960974549, 40.812102215163641 ], [ -73.871631003066881, 40.811888487639962 ], [ -73.872606348103204, 40.810289346384359 ], [ -73.874033771238032, 40.810095173971703 ], [ -73.87574686348475, 40.809935101905594 ], [ -73.876571325228966, 40.809858054501184 ], [ -73.877707403403164, 40.809630854857616 ], [ -73.8837, 40.807483999999889 ], [ -73.883140298243461, 40.802991164234889 ] ] } },
{ "type": "Feature", "properties": { "sewershed": "HP", "type": "Interceptor", "name": "Hunts Point West" }, "geometry": { "type": "LineString", "coordinates": [ [ -73.892904092713536, 40.809204927283709 ], [ -73.888833346531683, 40.808082962066841 ], [ -73.885703165038848, 40.807346624612713 ], [ -73.8837, 40.807483999999889 ] ] } },
{ "type": "Feature", "properties": { "sewershed": "HP", "type": "Interceptor", "name": "Throgs Neck" }, "geometry": { "type": "LineString", "coordinates": [ [ -73.79939488587344, 40.816378700305052 ], [ -73.800305580813145, 40.816677651847719 ], [ -73.801166483954205, 40.816947380149323 ], [ -73.802060951538877, 40.817192495513275 ], [ -73.802777013641872, 40.816989687286295 ], [ -73.803290947073947, 40.816661072893972 ], [ -73.803570260548639, 40.816516947005283 ], [ -73.804163975222963, 40.816274398696855 ], [ -73.804714144604375, 40.816487472365999 ], [ -73.805150480372745, 40.817050778391952 ], [ -73.805480865474223, 40.817154127881381 ], [ -73.806080828238947, 40.817341812242489 ], [ -73.807177489013327, 40.817017310647635 ], [ -73.808073146810685, 40.8168867469061 ], [ -73.809125810303726, 40.816774950506058 ], [ -73.811589564398119, 40.816603385404882 ], [ -73.814075462673259, 40.81640155033768 ], [ -73.814978766154098, 40.81621516279781 ], [ -73.815620196421705, 40.816082805213398 ], [ -73.816713275268427, 40.815855091670848 ], [ -73.817626990943396, 40.815666301396419 ], [ -73.818544067198189, 40.817533914165423 ], [ -73.819511477703259, 40.81927993575669 ], [ -73.820230208156786, 40.820517549324869 ], [ -73.820985259836633, 40.821732674469331 ], [ -73.822400330842953, 40.823786367561723 ], [ -73.82474186704205, 40.824713688910286 ], [ -73.82897299183594, 40.82585100353414 ], [ -73.831223222363548, 40.826763910973945 ], [ -73.833974073374662, 40.825458680368016 ], [ -73.83616466461163, 40.824992285644548 ], [ -73.838432299479862, 40.824731338299529 ], [ -73.840272089018782, 40.82453005881613 ], [ -73.841477840224258, 40.824387765811011 ] ] } },
{ "type": "Feature", "properties": { "sewershed": "HP", "type": "Interceptor", "name": "Throgs Neck" }, "geometry": { "type": "LineString", "coordinates": [ [ -73.826646544006422, 40.811943330793419 ], [ -73.827263509991553, 40.812934313814438 ], [ -73.825537719154312, 40.813542541548848 ], [ -73.824250649290803, 40.813974525074237 ], [ -73.822970759029829, 40.814405457766092 ], [ -73.822039426733184, 40.814727411498652 ], [ -73.819229466627064, 40.815332308382608 ], [ -73.817626990943396, 40.815666301396419 ] ] } },
{ "type": "Feature", "properties": { "sewershed": "HP", "type": "Interceptor", "name": "Throgs Neck" }, "geometry": { "type": "LineString", "coordinates": [ [ -73.824854132647829, 40.812402373297132 ], [ -73.82467730613422, 40.813826460664437 ] ] } },
{ "type": "Feature", "properties": { "sewershed": "HP", "type": "Interceptor", "name": "Throgs Neck" }, "geometry": { "type": "LineString", "coordinates": [ [ -73.804556340520705, 40.810762160487847 ], [ -73.805253891739696, 40.811495682982802 ], [ -73.806436218488329, 40.812875366261679 ], [ -73.807493131813629, 40.814088460439187 ], [ -73.808178152486363, 40.814785364145955 ], [ -73.809125810303726, 40.816774950506058 ] ] } },
{ "type": "Feature", "properties": { "sewershed": "HP", "type": "Force Main", "name": null }, "geometry": { "type": "LineString", "coordinates": [ [ -73.78338205735767, 40.845717119135372 ], [ -73.820980683349134, 40.831515001587164 ] ] } },
{ "type": "Feature", "properties": { "sewershed": "HP", "type": "Force Main", "name": null }, "geometry": { "type": "LineString", "coordinates": [ [ -73.796256548126848, 40.865773582234233 ], [ -73.822307428045306, 40.866231707928129 ], [ -73.824204880456307, 40.864986537164391 ] ] } },
{ "type": "Feature", "properties": { "sewershed": "HP", "type": "Force Main", "name": null }, "geometry": { "type": "LineString", "coordinates": [ [ -73.822962886977592, 40.879353873673352 ], [ -73.823527380962176, 40.883144772280495 ], [ -73.830880705295115, 40.882611967959448 ], [ -73.834776826859482, 40.880694662525137 ], [ -73.83647547627811, 40.879841232170271 ], [ -73.837601048415237, 40.878398555423402 ], [ -73.837870631878701, 40.87716465360284 ], [ -73.837607595063517, 40.875718197819864 ], [ -73.836119421861767, 40.874584383267262 ], [ -73.833831086736765, 40.873045318961786 ] ] } },
{ "type": "Feature", "properties": { "sewershed": "HP", "type": "Force Main", "name": null }, "geometry": { "type": "LineString", "coordinates": [ [ -73.824399295085371, 40.873692168513493 ], [ -73.82662857269996, 40.875924958976505 ], [ -73.828161141403911, 40.876767088689576 ], [ -73.830341745602269, 40.877207523692455 ], [ -73.832851526395885, 40.87704675476153 ], [ -73.833922456389232, 40.876388587257111 ] ] } },
{ "type": "Feature", "properties": { "sewershed": "HP", "type": "Interceptor", "name": "East Bronx" }, "geometry": { "type": "LineString", "coordinates": [ [ -73.841477840224115, 40.824387765811025 ], [ -73.844540881036224, 40.823898445323934 ], [ -73.844816622026599, 40.824918910233933 ] ] } },
{ "type": "Feature", "properties": { "sewershed": "HP", "type": "Interceptor", "name": "East Bronx" }, "geometry": { "type": "LineString", "coordinates": [ [ -73.841390835256405, 40.833653865999487 ], [ -73.841358092694264, 40.832474800792106 ], [ -73.84469969872039, 40.832133925207437 ] ] } },
{ "type": "Feature", "properties": { "sewershed": "HP", "type": "Force Main", "name": null }, "geometry": { "type": "LineString", "coordinates": [ [ -73.87425577021115, 40.803588420501505 ], [ -73.877680826615602, 40.805838081184064 ], [ -73.883592465733884, 40.805382330574929 ] ] } },
{ "type": "Feature", "properties": { "sewershed": "HP", "type": "Force Main", "name": null }, "geometry": { "type": "LineString", "coordinates": [ [ -73.887426130981083, 40.797927404347803 ], [ -73.888904662949528, 40.806160299293111 ] ] } },
{ "type": "Feature", "properties": { "sewershed": "HP", "type": "Force Main", "name": null }, "geometry": { "type": "LineString", "coordinates": [ [ -73.888904662949528, 40.806160299293111 ], [ -73.88960527399243, 40.80800363587359 ] ] } },
{ "type": "Feature", "properties": { "sewershed": "HP", "type": "Force Main", "name": null }, "geometry": { "type": "LineString", "coordinates": [ [ -73.823843793017588, 40.86493372884005 ], [ -73.838911378667405, 40.863708120422039 ] ] } },
{ "type": "Feature", "properties": { "sewershed": "HP", "type": "Force Main", "name": null }, "geometry": { "type": "LineString", "coordinates": [ [ -73.824391320599403, 40.865038532452111 ], [ -73.824056920826479, 40.862022920811299 ], [ -73.833535089057946, 40.861300168317108 ], [ -73.839261287696402, 40.860589537413162 ] ] } },
{ "type": "Feature", "properties": { "sewershed": "NC", "type": "Force Main", "name": null }, "geometry": { "type": "LineString", "coordinates": [ [ -73.973766318727115, 40.726588631131605 ], [ -73.960297203049322, 40.7296530536156 ] ] } },
{ "type": "Feature", "properties": { "sewershed": "BB", "type": "Interceptor", "name": null }, "geometry": { "type": "LineString", "coordinates": [ [ -73.825448310079594, 40.71729985587389 ], [ -73.825692466907711, 40.719730486560202 ], [ -73.82674801763099, 40.723258339030117 ], [ -73.82730752304731, 40.724879352150261 ], [ -73.828558389613377, 40.725596003339923 ], [ -73.829998165419269, 40.725931702952671 ], [ -73.830748832366453, 40.726314025767223 ], [ -73.83131002888635, 40.727315543674671 ] ] } },
{ "type": "Feature", "properties": { "sewershed": "BB", "type": "Force Main", "name": null }, "geometry": { "type": "LineString", "coordinates": [ [ -73.826251295881576, 40.721589765406307 ], [ -73.829820843364885, 40.721785705428367 ], [ -73.830514646682573, 40.719880642761865 ], [ -73.835276337402448, 40.719172771641986 ] ] } },
{ "type": "Feature", "properties": { "sewershed": "BB", "type": "Force Main", "name": null }, "geometry": { "type": "LineString", "coordinates": [ [ -73.837456530618411, 40.724036388574369 ], [ -73.844351778715165, 40.721710962117434 ] ] } },
{ "type": "Feature", "properties": { "sewershed": "BB", "type": "Force Main", "name": null }, "geometry": { "type": "LineString", "coordinates": [ [ -73.841451194085437, 40.729903167031331 ], [ -73.845150498261816, 40.728383334507278 ], [ -73.845649620241616, 40.729241742175944 ], [ -73.847405160048254, 40.728529300765075 ], [ -73.84777957735534, 40.729149273417519 ], [ -73.848344307148651, 40.728721149845214 ] ] } },
{ "type": "Feature", "properties": { "sewershed": "BB", "type": "Force Main", "name": null }, "geometry": { "type": "LineString", "coordinates": [ [ -73.865919266911973, 40.731737540211803 ], [ -73.862555282494938, 40.730274229940605 ], [ -73.857264195508577, 40.732978003535706 ] ] } },
{ "type": "Feature", "properties": { "sewershed": "BB", "type": "Interceptor", "name": null }, "geometry": { "type": "LineString", "coordinates": [ [ -73.870731906189278, 40.733261952094161 ], [ -73.868697762843851, 40.732366174970849 ], [ -73.867326631168226, 40.732781558753807 ], [ -73.864622198065575, 40.734237754760343 ], [ -73.861017801375453, 40.735365196793879 ], [ -73.858745462036964, 40.736047429844703 ], [ -73.853965847756342, 40.737351898709633 ], [ -73.8516540810582, 40.738093506840244 ] ] } },
{ "type": "Feature", "properties": { "sewershed": "BB", "type": "Interceptor", "name": null }, "geometry": { "type": "LineString", "coordinates": [ [ -73.851653948440543, 40.738153071691812 ], [ -73.857349389361119, 40.748048053050361 ], [ -73.857310228680646, 40.748048004543548 ] ] } },
{ "type": "Feature", "properties": { "sewershed": "BB", "type": "Interceptor", "name": null }, "geometry": { "type": "LineString", "coordinates": [ [ -73.85731808292941, 40.748037689685056 ], [ -73.860438658416712, 40.753902699621754 ], [ -73.860684425506633, 40.756237939967932 ], [ -73.860423381964665, 40.761193418423417 ], [ -73.87062091885349, 40.770259166310296 ], [ -73.887734347293943, 40.768895210496332 ], [ -73.888791894725856, 40.773661412000173 ], [ -73.892866020988905, 40.773760575523276 ], [ -73.896585147459419, 40.776432470128015 ], [ -73.893447295880563, 40.778716893418256 ] ] } },
{ "type": "Feature", "properties": { "sewershed": "BB", "type": "Interceptor", "name": null }, "geometry": { "type": "LineString", "coordinates": [ [ -73.896522463623526, 40.776432413854714 ], [ -73.900906006825252, 40.779343020833977 ] ] } },
{ "type": "Feature", "properties": { "sewershed": "BB", "type": "Force Main", "name": null }, "geometry": { "type": "LineString", "coordinates": [ [ -73.885887314222188, 40.7875194967813 ], [ -73.89207052015891, 40.778833788368544 ], [ -73.893573798308694, 40.779578553040892 ] ] } },
{ "type": "Feature", "properties": { "sewershed": "BB", "type": "Interceptor", "name": null }, "geometry": { "type": "LineString", "coordinates": [ [ -73.894551531216095, 40.779693815945407 ], [ -73.900199352321408, 40.775696102401696 ], [ -73.915079671768751, 40.786057973041025 ] ] } },
{ "type": "Feature", "properties": { "sewershed": "BB", "type": "Interceptor", "name": null }, "geometry": { "type": "LineString", "coordinates": [ [ -73.927653522969607, 40.776688704722666 ], [ -73.926750494543228, 40.777031226448294 ], [ -73.925322508167596, 40.775943851097267 ], [ -73.915685651218453, 40.782799045276271 ], [ -73.915159493692329, 40.782455567163339 ], [ -73.91267428895685, 40.784512262299799 ] ] } },
{ "type": "Feature", "properties": { "sewershed": "BB", "type": "Interceptor", "name": null }, "geometry": { "type": "LineString", "coordinates": [ [ -73.919823663105973, 40.782401724545132 ], [ -73.917038255688425, 40.78400084863415 ], [ -73.915155121866661, 40.785886482720713 ] ] } },
{ "type": "Feature", "properties": { "sewershed": "BB", "type": "Force Main", "name": null }, "geometry": { "type": "LineString", "coordinates": [ [ -73.956327453331554, 40.754207693261243 ], [ -73.947596672880465, 40.764496843976772 ], [ -73.946091372565164, 40.765925702637631 ] ] } },
{ "type": "Feature", "properties": { "sewershed": "BB", "type": "Force Main", "name": null }, "geometry": { "type": "LineString", "coordinates": [ [ -73.942627976132854, 40.77032705203969 ], [ -73.94601616379046, 40.765925667422373 ] ] } },
{ "type": "Feature", "properties": { "sewershed": "BB", "type": "Force Main", "name": null }, "geometry": { "type": "LineString", "coordinates": [ [ -73.94601616379046, 40.765925667422373 ], [ -73.943911473880135, 40.764552290953858 ], [ -73.943836314877217, 40.764495072205051 ] ] } },
{ "type": "Feature", "properties": { "sewershed": "BB", "type": "Interceptor", "name": null }, "geometry": { "type": "LineString", "coordinates": [ [ -73.943836314877217, 40.764495072205051 ], [ -73.94165615888447, 40.763521892402672 ] ] } },
{ "type": "Feature", "properties": { "sewershed": "BB", "type": "Interceptor", "name": null }, "geometry": { "type": "LineString", "coordinates": [ [ -73.941505796988636, 40.763464634014305 ], [ -73.93977316355739, 40.766665940629458 ], [ -73.936086795419129, 40.767807596930034 ] ] } },
{ "type": "Feature", "properties": { "sewershed": "BB", "type": "Interceptor", "name": null }, "geometry": { "type": "LineString", "coordinates": [ [ -73.936086850294899, 40.767750414850589 ], [ -73.936010925233447, 40.768493740099011 ], [ -73.934055874833675, 40.7680351808621 ], [ -73.931721984289368, 40.770321105420599 ], [ -73.930517013455912, 40.771807119267628 ], [ -73.927131944816608, 40.772148120706895 ], [ -73.926979318751066, 40.774149396483935 ], [ -73.926075242163506, 40.775464007271523 ] ] } },
{ "type": "Feature", "properties": { "sewershed": "BB", "type": "Interceptor", "name": null }, "geometry": { "type": "LineString", "coordinates": [ [ -73.930968720818768, 40.77140711621864 ], [ -73.933600731218846, 40.771923301738326 ], [ -73.93262211923934, 40.772723282657182 ], [ -73.934201325584255, 40.773067287686033 ], [ -73.936757720495763, 40.774097996225471 ], [ -73.936229551752206, 40.775813166577144 ], [ -73.935852625820587, 40.776670687921985 ], [ -73.933295516084343, 40.776268961788816 ], [ -73.930212376665821, 40.775409405121046 ] ] } },
{ "type": "Feature", "properties": { "sewershed": "BB", "type": "Interceptor", "name": null }, "geometry": { "type": "LineString", "coordinates": [ [ -73.941581002981849, 40.763464672173868 ], [ -73.943689284776298, 40.760492249849037 ], [ -73.944668059146679, 40.759120351950926 ], [ -73.947227025580972, 40.756433989729402 ], [ -73.949709381821563, 40.755348638312562 ], [ -73.949259115532797, 40.754147614369622 ], [ -73.950613609228355, 40.752833011904556 ] ] } },
{ "type": "Feature", "properties": { "sewershed": "BB", "type": "Interceptor", "name": null }, "geometry": { "type": "LineString", "coordinates": [ [ -73.925601181468892, 40.728494205259665 ], [ -73.927404305783909, 40.729295910228785 ], [ -73.929959877995188, 40.729411857894483 ], [ -73.931162677023295, 40.729298218372485 ], [ -73.933491897116241, 40.730271688431138 ], [ -73.936345843193891, 40.732846509742686 ], [ -73.937246877222677, 40.733933469728711 ], [ -73.939803160991275, 40.733477375267114 ], [ -73.939125253428159, 40.734963760894495 ], [ -73.938673947345052, 40.735249433329322 ], [ -73.940400139613388, 40.738395369621593 ] ] } },
{ "type": "Feature", "properties": { "sewershed": "BB", "type": "Interceptor", "name": null }, "geometry": { "type": "LineString", "coordinates": [ [ -73.950763845066177, 40.753038932240187 ], [ -73.952570094406724, 40.750809582934984 ], [ -73.952571112207067, 40.749380027081706 ], [ -73.955127460047763, 40.749552598103257 ] ] } },
{ "type": "Feature", "properties": { "sewershed": "BB", "type": "Interceptor", "name": null }, "geometry": { "type": "LineString", "coordinates": [ [ -73.955203996136859, 40.74755124870228 ], [ -73.952572699888378, 40.747149919366151 ], [ -73.952571112207067, 40.749380027081706 ] ] } },
{ "type": "Feature", "properties": { "sewershed": "BB", "type": "Interceptor", "name": null }, "geometry": { "type": "LineString", "coordinates": [ [ -73.940395382302199, 40.743713323776007 ], [ -73.941374330218935, 40.741941174491615 ], [ -73.942202172198478, 40.740969493387695 ], [ -73.942804549689967, 40.739883329786288 ], [ -73.943030723432102, 40.73914007146292 ], [ -73.951975774743886, 40.740802436617116 ], [ -73.951976557851211, 40.739715972655041 ], [ -73.952653129949837, 40.739773435127283 ], [ -73.954983339248543, 40.740289010526126 ], [ -73.957088522115384, 40.740061084839326 ], [ -73.95971935817569, 40.740805405296072 ], [ -73.958740667043614, 40.742977986828627 ], [ -73.958439507493551, 40.743664066197049 ], [ -73.957461791455628, 40.744178349933129 ], [ -73.958062797370843, 40.744921940165071 ], [ -73.957987143523724, 40.745665282341257 ], [ -73.957084433771641, 40.746408319197009 ], [ -73.955505703059075, 40.746121808733903 ], [ -73.955053581486325, 40.747608372375247 ] ] } },
{ "type": "Feature", "properties": { "sewershed": "WI", "type": "Force Main", "name": null }, "geometry": { "type": "LineString", "coordinates": [ [ -73.936730465168324, 40.791193003117691 ], [ -73.923958430063493, 40.786723387930216 ] ] } },
{ "type": "Feature", "properties": { "sewershed": "RH", "type": "Force Main", "name": null }, "geometry": { "type": "LineString", "coordinates": [ [ -74.012305601132155, 40.677864031082173 ], [ -74.01678834016225, 40.681021965794869 ], [ -74.018635410168713, 40.686148126218427 ] ] } },
{ "type": "Feature", "properties": { "sewershed": "OB", "type": "Interceptor", "name": null }, "geometry": { "type": "LineString", "coordinates": [ [ -74.16863533313267, 40.586413870104202 ], [ -74.169806550796579, 40.575051691692202 ], [ -74.168803936812623, 40.573985743556428 ], [ -74.166701101343932, 40.572768899042487 ], [ -74.167796374983098, 40.570937431332688 ], [ -74.167494315545753, 40.570099180225824 ], [ -74.167090182843623, 40.568422384746007 ], [ -74.16478853434063, 40.567587017635979 ], [ -74.161985013576867, 40.565913621127436 ], [ -74.161881709893194, 40.56454136130958 ], [ -74.162278464974719, 40.563244640587406 ], [ -74.164875718317901, 40.56240224927194 ], [ -74.165974849828316, 40.562171931922634 ], [ -74.166273438569092, 40.561637786624772 ], [ -74.167072257688289, 40.561255403527767 ], [ -74.16867140845774, 40.561100576670484 ], [ -74.171672098242055, 40.561706089136955 ], [ -74.176175044488758, 40.563300411087482 ], [ -74.179177128053936, 40.564363194187948 ], [ -74.182579424298538, 40.56550150820258 ], [ -74.185078011902419, 40.56519253029925 ], [ -74.187674624989896, 40.56419713470595 ], [ -74.189771508038476, 40.563278751751113 ], [ -74.191869647293458, 40.562817797154345 ], [ -74.19326883185839, 40.56266296168539 ], [ -74.194265901622074, 40.561746341727009 ], [ -74.198254359580645, 40.55823226355816 ] ] } },
{ "type": "Feature", "properties": { "sewershed": "OB", "type": "Interceptor", "name": null }, "geometry": { "type": "LineString", "coordinates": [ [ -74.207748319349832, 40.557300544250403 ], [ -74.210945031611516, 40.556608513277297 ], [ -74.212841917229895, 40.555842564537151 ], [ -74.215637675732339, 40.554846165357091 ], [ -74.218033014116813, 40.553697968926024 ], [ -74.221220864542161, 40.550413339778231 ], [ -74.2233145604703, 40.54880814314653 ], [ -74.226310544595322, 40.548039828091888 ], [ -74.228904570712558, 40.546662276685907 ], [ -74.23119759391605, 40.544980292702455 ] ] } },
{ "type": "Feature", "properties": { "sewershed": "CI", "type": "Interceptor", "name": null }, "geometry": { "type": "LineString", "coordinates": [ [ -74.001668867935592, 40.576741854989145 ], [ -73.976669448704584, 40.579122139790364 ], [ -73.974480446785137, 40.583172164077304 ], [ -73.951040096495746, 40.585785471132702 ], [ -73.951039048414387, 40.58721505472581 ], [ -73.950041435581923, 40.587397535029531 ], [ -73.950196635518523, 40.588827186235214 ], [ -73.933575496319577, 40.590225789933946 ] ] } },
{ "type": "Feature", "properties": { "sewershed": "CI", "type": "Interceptor", "name": null }, "geometry": { "type": "LineString", "coordinates": [ [ -73.933575496319577, 40.590225789933946 ], [ -73.934558487569291, 40.600256008946843 ], [ -73.937369024636027, 40.603235871003804 ], [ -73.917346594281284, 40.615851183274465 ], [ -73.919931681679628, 40.641596542208561 ] ] } },
{ "type": "Feature", "properties": { "sewershed": "OB", "type": "Interceptor", "name": null }, "geometry": { "type": "LineString", "coordinates": [ [ -74.238939982419168, 40.530020407975321 ], [ -74.239107645370268, 40.521023131482195 ], [ -74.23919855284241, 40.518506851122822 ], [ -74.240194608074503, 40.517666073976393 ], [ -74.242587639073747, 40.516364872823672 ], [ -74.246179397345927, 40.515061056617306 ], [ -74.248774287813504, 40.514369254522542 ], [ -74.250169473246629, 40.513451279115586 ], [ -74.250962943293487, 40.51192464189814 ], [ -74.251853686914387, 40.509711578145364 ], [ -74.252246645555857, 40.507957073870472 ], [ -74.251941226345977, 40.506432839154478 ], [ -74.251535647723259, 40.504832577782118 ], [ -74.251131233940797, 40.503537293486723 ], [ -74.250428615985655, 40.502623885352449 ], [ -74.243842724785296, 40.504391710119691 ], [ -74.238351996450106, 40.505241943548242 ], [ -74.23495878347903, 40.506087638700166 ], [ -74.230068714739346, 40.507393715231743 ], [ -74.227274378022983, 40.508161735271045 ], [ -74.222581256069404, 40.508704649777336 ], [ -74.218587808119125, 40.509398532093506 ], [ -74.215492835093144, 40.509938101405353 ], [ -74.211400067977621, 40.510860655223311 ], [ -74.208709314902293, 40.512924199146852 ], [ -74.205917554644358, 40.514682880102946 ], [ -74.202726494367525, 40.516594688856067 ], [ -74.199534796426818, 40.518353919209879 ], [ -74.197238740580616, 40.518967848420573 ], [ -74.195242145682087, 40.519504977538872 ], [ -74.193148693559294, 40.521109665953226 ], [ -74.191352916490374, 40.522027614422726 ], [ -74.188158942903854, 40.523176570190671 ], [ -74.184465701749005, 40.524478730270793 ], [ -74.181371203462263, 40.525551091665129 ], [ -74.178377135462085, 40.526851948432238 ], [ -74.170782667077134, 40.526634762873812 ], [ -74.167385413985983, 40.526639766691133 ], [ -74.159200099626105, 40.530036686720635 ], [ -74.156705030585286, 40.531336283839863 ], [ -74.154511059229662, 40.533245381149626 ], [ -74.152512650765232, 40.533324298190458 ], [ -74.150814885903088, 40.533784010547684 ], [ -74.14712117054242, 40.535466191443973 ], [ -74.143929078731475, 40.538138808956013 ], [ -74.143135629110319, 40.540960861500459 ], [ -74.141841255124191, 40.543249813714844 ], [ -74.139845883249123, 40.544929647918217 ], [ -74.137749833221562, 40.546304588582885 ], [ -74.135053530192195, 40.547451463782103 ], [ -74.13245708672865, 40.548598160314064 ], [ -74.129459852460656, 40.549287781641681 ], [ -74.126262359795234, 40.549825055397562 ], [ -74.122264898484133, 40.550210604959389 ], [ -74.120146081337225, 40.550334832929181 ], [ -74.119245808344871, 40.549954547360606 ], [ -74.117846315461236, 40.549879747269941 ] ] } },
{ "type": "Feature", "properties": { "sewershed": "OB", "type": "Interceptor", "name": null }, "geometry": { "type": "LineString", "coordinates": [ [ -74.115148212675393, 40.550263708291773 ], [ -74.105661322061636, 40.555838695885882 ], [ -74.097176886936296, 40.564385594466394 ], [ -74.092225665878843, 40.569879291206 ], [ -74.089029123996255, 40.572092907022217 ], [ -74.08653171218694, 40.573848441234581 ], [ -74.082734643043096, 40.575909842428857 ], [ -74.079337142987697, 40.577818353206347 ], [ -74.078039066784029, 40.579420377974216 ], [ -74.077940492055419, 40.5806403576292 ], [ -74.079641130952638, 40.581172903132547 ] ] } },
{ "type": "Feature", "properties": { "sewershed": "OB", "type": "Interceptor", "name": null }, "geometry": { "type": "LineString", "coordinates": [ [ -74.157690297957103, 40.559286303407617 ], [ -74.152463422973753, 40.546789211665619 ], [ -74.151060512063509, 40.545189923817418 ], [ -74.150957464753574, 40.543817651789027 ], [ -74.148755621048224, 40.542448117715345 ], [ -74.147053068497115, 40.540849168385577 ], [ -74.146352149168337, 40.540240104874734 ], [ -74.144755758051673, 40.541462046600607 ], [ -74.143135629110319, 40.540960861500459 ] ] } },
{ "type": "Feature", "properties": { "sewershed": "OB", "type": "Interceptor", "name": null }, "geometry": { "type": "LineString", "coordinates": [ [ -74.195242145682087, 40.519504977538872 ], [ -74.193158982011255, 40.517754864966619 ], [ -74.193254259285908, 40.516153557542374 ] ] } },
{ "type": "Feature", "properties": { "sewershed": "OB", "type": "Interceptor", "name": null }, "geometry": { "type": "LineString", "coordinates": [ [ -74.24475843391977, 40.504145938163099 ], [ -74.243043384628194, 40.498827499795098 ] ] } },
{ "type": "Feature", "properties": { "sewershed": "PR", "type": "Interceptor", "name": null }, "geometry": { "type": "LineString", "coordinates": [ [ -74.06364924291924, 40.610841955083664 ], [ -74.065553100257972, 40.613890657006394 ], [ -74.064753292171574, 40.614501064615517 ], [ -74.064853787499914, 40.614958473639568 ], [ -74.064254138585227, 40.615645008868924 ], [ -74.067959034279212, 40.618540160244272 ], [ -74.070262430419902, 40.620521125845649 ], [ -74.072767252741201, 40.623569336725531 ], [ -74.074172052823613, 40.627075672274671 ], [ -74.074776315226728, 40.630506268713951 ], [ -74.074478728337311, 40.632870030543081 ], [ -74.074484429854621, 40.637978382889408 ] ] } },
{ "type": "Feature", "properties": { "sewershed": "PR", "type": "Interceptor", "name": null }, "geometry": { "type": "LineString", "coordinates": [ [ -74.075787020887759, 40.639273681361942 ], [ -74.075889970381169, 40.641789668053868 ], [ -74.076793516652486, 40.644152634037226 ], [ -74.078698025770422, 40.646438667704196 ], [ -74.080801115394493, 40.64727589363261 ], [ -74.084505491817367, 40.647806939517203 ], [ -74.086107104732221, 40.647805751517744 ], [ -74.088507905732371, 40.646584024427177 ], [ -74.091209431335884, 40.645743229112149 ], [ -74.096112571174729, 40.644595575035396 ], [ -74.098514649419329, 40.644441054271532 ], [ -74.102218658932301, 40.644742797872226 ], [ -74.105121928827998, 40.645045156928077 ], [ -74.108124580800478, 40.64488988489321 ], [ -74.11262698818048, 40.643741902369911 ], [ -74.116826959402204, 40.641450389341315 ], [ -74.121626474023202, 40.63877686878773 ], [ -74.123825845965015, 40.637402126828697 ] ] } },
{ "type": "Feature", "properties": { "sewershed": "PR", "type": "Interceptor", "name": null }, "geometry": { "type": "LineString", "coordinates": [ [ -74.130220582218001, 40.631905481629943 ], [ -74.129020986090396, 40.632593031800155 ], [ -74.128023132081537, 40.634119030997759 ], [ -74.128025911216582, 40.635567667298623 ], [ -74.128330410402086, 40.637778408615702 ], [ -74.12903395892657, 40.639302504271974 ], [ -74.130237098087846, 40.640368565876074 ], [ -74.131839133989374, 40.640671716859856 ], [ -74.134742206830921, 40.64089708429541 ], [ -74.13714343542263, 40.64043678078572 ], [ -74.139644879424793, 40.640052549567379 ], [ -74.14174529272303, 40.639363782281094 ], [ -74.143645324489057, 40.638598982844982 ], [ -74.145445559306978, 40.637986766522012 ], [ -74.149147377253229, 40.637372071178007 ], [ -74.151648810494819, 40.637063822680005 ], [ -74.155452024634457, 40.637058744008506 ], [ -74.157854054316402, 40.637055471614538 ], [ -74.159155881005972, 40.637358653924402 ], [ -74.160958882489666, 40.637966097865707 ] ] } },
{ "type": "Feature", "properties": { "sewershed": "PR", "type": "Interceptor", "name": null }, "geometry": { "type": "LineString", "coordinates": [ [ -74.160958882489666, 40.637966097865707 ], [ -74.162962649055018, 40.638801961787671 ], [ -74.164766853758991, 40.639866809477134 ], [ -74.166571306373967, 40.641007872641801 ], [ -74.168273613478036, 40.641310370966828 ], [ -74.169975353357458, 40.641384112387328 ], [ -74.171075377302174, 40.641001260223817 ], [ -74.172275281657377, 40.640542003715829 ], [ -74.173377061441897, 40.640845324622909 ], [ -74.174680030547904, 40.641529550516168 ], [ -74.176081710248042, 40.641679901188908 ], [ -74.17718210893635, 40.641449478400119 ], [ -74.178382794614535, 40.641295133742069 ], [ -74.179883952210616, 40.641216551112052 ] ] } },
{ "type": "Feature", "properties": { "sewershed": "OH", "type": "Interceptor", "name": null }, "geometry": { "type": "LineString", "coordinates": [ [ -74.040285042120871, 40.62216367099974 ], [ -74.039889440277619, 40.629940714995243 ], [ -74.038789910880553, 40.632152171150345 ], [ -74.036990589081228, 40.635888725529718 ], [ -74.035891070650351, 40.638481372847941 ], [ -74.035090937103107, 40.639549036765153 ], [ -74.033890378980757, 40.640540569634609 ], [ -74.032989833312925, 40.641074539882666 ], [ -74.031388560647855, 40.641456208351379 ], [ -74.028786252033314, 40.641609377310019 ], [ -74.018979881989026, 40.650760694397555 ] ] } },
{ "type": "Feature", "properties": { "sewershed": "ROC", "type": "Interceptor", "name": null }, "geometry": { "type": "LineString", "coordinates": [ [ -73.809870814395438, 40.591539680655288 ], [ -73.800971410550375, 40.591702686070192 ], [ -73.799468873564194, 40.592462520069631 ], [ -73.790464896649027, 40.593208900809884 ], [ -73.788461503105978, 40.594158288273874 ], [ -73.767952749752354, 40.595452986390548 ], [ -73.766447085914862, 40.596974829572574 ] ] } },
{ "type": "Feature", "properties": { "sewershed": "ROC", "type": "Interceptor", "name": null }, "geometry": { "type": "LineString", "coordinates": [ [ -73.868706514435999, 40.573089721730632 ], [ -73.869027969627808, 40.568736418570047 ], [ -73.871033134832402, 40.565879511600649 ] ] } },
{ "type": "Feature", "properties": { "sewershed": "ROC", "type": "Interceptor", "name": null }, "geometry": { "type": "LineString", "coordinates": [ [ -73.871033134832402, 40.565879511600649 ], [ -73.875952888558274, 40.565658737433353 ], [ -73.879826508780681, 40.565948772989756 ], [ -73.881201038200999, 40.566045508676588 ], [ -73.882450263198251, 40.566332711443074 ], [ -73.88282367868581, 40.567190845574018 ] ] } },
{ "type": "Feature", "properties": { "sewershed": "NR", "type": "Interceptor", "name": null }, "geometry": { "type": "LineString", "coordinates": [ [ -73.953738358411542, 40.826351005784481 ], [ -73.955948353550568, 40.823530912898441 ], [ -73.958158401068218, 40.820329565575705 ], [ -73.961874660841659, 40.81522262656879 ], [ -73.965188691337488, 40.810649139019652 ], [ -73.968301552359605, 40.806151740166136 ], [ -73.971715086546112, 40.801425601094245 ], [ -73.973622358681553, 40.798986295989685 ], [ -73.974024296184467, 40.797385296017787 ], [ -73.976432492588799, 40.796318419171342 ], [ -73.977436793725374, 40.793192678427175 ], [ -73.979242900474972, 40.792049380250276 ], [ -73.981049227322401, 40.789914900700424 ], [ -73.98205315346928, 40.787017844320786 ], [ -73.983257373766534, 40.785035718387654 ], [ -73.985765737484058, 40.781833865738911 ], [ -73.985665684625303, 40.780674965226581 ], [ -73.985164317541859, 40.780064960577697 ], [ -73.992888581612434, 40.768934259560233 ], [ -73.995335519988302, 40.768431182239794 ], [ -73.999447137196796, 40.762560578290874 ], [ -74.002254692047828, 40.759663328567072 ], [ -74.004761148930697, 40.755927349890975 ], [ -74.006665869962674, 40.75310626657928 ], [ -74.007768453179281, 40.750818908402437 ], [ -74.007768239799972, 40.748989076599138 ], [ -74.007767697513614, 40.744338251945699 ], [ -74.008368751471622, 40.740983514714145 ], [ -74.009070105247289, 40.738543682343355 ], [ -74.009470837193916, 40.73701878761662 ] ] } },
{ "type": "Feature", "properties": { "sewershed": "NR", "type": "Interceptor", "name": null }, "geometry": { "type": "LineString", "coordinates": [ [ -73.92107166676891, 40.859936300551077 ], [ -73.919570256853376, 40.861494997573594 ], [ -73.917859967828392, 40.864009766920127 ], [ -73.917957666392212, 40.866220843164953 ], [ -73.919761995152683, 40.86904305026416 ], [ -73.921265884955005, 40.871255090852671 ], [ -73.923475152150587, 40.871561543151259 ], [ -73.926891541288015, 40.870191410665925 ], [ -73.930709523714768, 40.868821418632059 ], [ -73.932923060330239, 40.864858164574898 ], [ -73.933929759627532, 40.862419013569735 ], [ -73.935940586810489, 40.859980414646138 ], [ -73.939459457159501, 40.855407812925549 ], [ -73.941972848804213, 40.851901983996875 ], [ -73.94438391541216, 40.850378335932298 ], [ -73.944789904669932, 40.845117844946394 ], [ -73.94529428852546, 40.842205645453689 ], [ -73.946601544039382, 40.839537791005824 ], [ -73.948009139590823, 40.836793723882536 ], [ -73.948713892947225, 40.8341255699548 ], [ -73.950021024400911, 40.831228947055706 ], [ -73.952934971524201, 40.826960617457786 ], [ -73.953738358411542, 40.826351005784481 ], [ -73.956082728285367, 40.827143210271139 ] ] } },
{ "type": "Feature", "properties": { "sewershed": "WI", "type": "Interceptor", "name": null }, "geometry": { "type": "LineString", "coordinates": [ [ -73.950409095792153, 40.768451101458531 ], [ -73.946996589444709, 40.77210923549378 ], [ -73.943582997644171, 40.776605935930533 ], [ -73.944083765651058, 40.777444849745493 ], [ -73.945085905404923, 40.778436486661022 ], [ -73.945085025132002, 40.779503883753002 ], [ -73.944982584490276, 40.782096085267582 ], [ -73.943877198176253, 40.784535316379774 ], [ -73.942872106353349, 40.786898343184198 ], [ -73.94026137974042, 40.789870479799852 ], [ -73.938855927456615, 40.791013380979344 ], [ -73.93673046516831, 40.791193003117698 ] ] } },
{ "type": "Feature", "properties": { "sewershed": "WI", "type": "Interceptor", "name": null }, "geometry": { "type": "LineString", "coordinates": [ [ -73.923958430063379, 40.786723387930188 ], [ -73.918737219636199, 40.803580961230516 ], [ -73.911617175897348, 40.800754752405552 ], [ -73.908704550295155, 40.802963513011122 ], [ -73.906694020352731, 40.805706629812782 ], [ -73.903783439416571, 40.806237934043807 ] ] } },
{ "type": "Feature", "properties": { "sewershed": "WI", "type": "Interceptor", "name": null }, "geometry": { "type": "LineString", "coordinates": [ [ -73.93673046516831, 40.791193003117698 ], [ -73.93088219805027, 40.799319307219946 ], [ -73.931180977032724, 40.801454274135367 ], [ -73.932081630166095, 40.803742080503795 ], [ -73.933183558511971, 40.805496299225034 ], [ -73.933784145254961, 40.806945250619506 ], [ -73.934686009622027, 40.808165642604934 ], [ -73.936792467553389, 40.808929240056486 ], [ -73.935384628764282, 40.81205439421192 ], [ -73.937089677602842, 40.812970244569286 ], [ -73.936888039224144, 40.813961283877781 ], [ -73.93537966899126, 40.817162622625716 ], [ -73.934776041143536, 40.81868712705888 ], [ -73.934875429054884, 40.819678331834403 ], [ -73.935576985037002, 40.820669874366622 ], [ -73.936278999966518, 40.821203959686173 ], [ -73.935574770661475, 40.822957138118518 ], [ -73.935272639499843, 40.824024358955661 ], [ -73.935171159408483, 40.825167933919921 ], [ -73.935772040580787, 40.82654062823169 ], [ -73.935972193086144, 40.827150676354044 ], [ -73.935970872500931, 40.828523033235705 ], [ -73.936170081975391, 40.830124227151906 ], [ -73.936168838556611, 40.831420341349066 ], [ -73.936167448795942, 40.83286893923492 ], [ -73.935964268757644, 40.835384812900067 ], [ -73.935962566238544, 40.837153625924046 ], [ -73.934655530036707, 40.839211425676616 ], [ -73.933347878262325, 40.841802902988228 ], [ -73.932041292933846, 40.843250736727107 ], [ -73.931939181922985, 40.844927997929624 ] ] } },
{ "type": "Feature", "properties": { "sewershed": "WI", "type": "Interceptor", "name": null }, "geometry": { "type": "LineString", "coordinates": [ [ -73.918737219636199, 40.803580961230516 ], [ -73.930671519855736, 40.808940970160805 ], [ -73.929867489168984, 40.810160361017964 ], [ -73.931872828370075, 40.8116864095498 ], [ -73.932072667016982, 40.812525192651549 ], [ -73.929959730631523, 40.817860886125338 ], [ -73.93086076978301, 40.819950466380263 ], [ -73.932357021452205, 40.828947925775907 ], [ -73.93245491809698, 40.831387729147849 ], [ -73.931346522775698, 40.835504143780888 ], [ -73.930640740355472, 40.838477158548038 ], [ -73.928126599765889, 40.842592683558927 ], [ -73.924608838091928, 40.84609756463535 ], [ -73.923501553455935, 40.848612816524934 ], [ -73.919781401659023, 40.852956072296173 ], [ -73.917268033415226, 40.855470275303276 ], [ -73.916462236893167, 40.857451979619782 ], [ -73.915957650336793, 40.85943389745222 ], [ -73.915353678818377, 40.860577081170476 ], [ -73.913242748099918, 40.862176588180915 ], [ -73.910429658874065, 40.863089338487939 ], [ -73.909323842118482, 40.863927132802409 ], [ -73.908819307297946, 40.865680292548149 ], [ -73.908615725756846, 40.867662413054383 ], [ -73.908109036777859, 40.870940397871948 ] ] } },
{ "type": "Feature", "properties": { "sewershed": "NC", "type": "Interceptor", "name": null }, "geometry": { "type": "LineString", "coordinates": [ [ -73.97562906936345, 40.741695811279406 ], [ -73.973470562343692, 40.740580892575146 ] ] } },
{ "type": "Feature", "properties": { "sewershed": "JAM", "type": "Interceptor", "name": null }, "geometry": { "type": "LineString", "coordinates": [ [ -73.769972527277787, 40.661648754533587 ], [ -73.76636098612714, 40.668474170608839 ], [ -73.770705701146298, 40.678966464880766 ], [ -73.770373051425054, 40.684684097362201 ], [ -73.763152347027827, 40.690864278977173 ], [ -73.744976467873798, 40.696305465887257 ] ] } },
{ "type": "Feature", "properties": { "sewershed": "WI", "type": "Interceptor", "name": null }, "geometry": { "type": "LineString", "coordinates": [ [ -73.922259917150768, 40.880099774506178 ], [ -73.920051838699692, 40.878573437772403 ], [ -73.918646589519653, 40.877733800005231 ], [ -73.917140645092246, 40.877122797066917 ], [ -73.914846241563808, 40.876666710276517 ], [ -73.912321044841946, 40.875746889782683 ], [ -73.909811186843712, 40.874830057872025 ] ] } },
{ "type": "Feature", "properties": { "sewershed": "HP", "type": "Interceptor", "name": null }, "geometry": { "type": "LineString", "coordinates": [ [ -73.856623189614936, 40.815627514337585 ], [ -73.844933615847438, 40.817736338326341 ], [ -73.84657472990672, 40.82414288470099 ], [ -73.844816622026599, 40.824918910233954 ] ] } },
{ "type": "Feature", "properties": { "sewershed": "HP", "type": "Interceptor", "name": null }, "geometry": { "type": "LineString", "coordinates": [ [ -73.855784551015006, 40.811471787113916 ], [ -73.854742819804159, 40.806541484540041 ] ] } },
{ "type": "Feature", "properties": { "sewershed": "HP", "type": "Interceptor", "name": null }, "geometry": { "type": "LineString", "coordinates": [ [ -73.840272089018839, 40.82453005881613 ], [ -73.840994581670188, 40.828252404956096 ] ] } }
]
}
